GLOBALSTAR M057         
1 25943U 99058A   25082.50877653 -.00000068  00000+0  22813-3 0  9995
2 25943  51.9974 231.3571 0002856 182.5354 177.5481 12.24815988156431
GLOBALSTAR M059         
1 25944U 99058B   25082.13213429 -.00000061  00000+0  31759-3 0  9992
2 25944  52.0007  79.9765 0000608 136.9983 299.4129 11.99975031563719
GLOBALSTAR M056         
1 25945U 99058C   25082.49704623 -.00000008  00000+0  92796-3 0  9992
2 25945  51.9950  83.1471 0001025  20.3978 152.0879 12.04777983152296
GLOBALSTAR M031         
1 25946U 99058D   25082.21232066  .00000055  00000+0  14809-2 0  9999
2 25946  51.9993 341.4094 0001758  27.2530 144.4410 12.16032878154083
GLOBALSTAR M039         
1 25961U 99062A   25082.57100741 -.00000068  00000+0  20121-3 0  9994
2 25961  51.9839 169.4867 0003237 152.5030 207.6009 12.62321555169431
GLOBALSTAR M034         
1 25962U 99062B   25082.79628238 -.00000055  00000+0  41818-3 0  9997
2 25962  51.9858 233.3546 0013659 236.6342 265.3230 11.79446029128294
GLOBALSTAR M029         
1 25963U 99062C   25082.62068354 -.00000046  00000+0  50234-3 0  9999
2 25963  51.9829 326.7704 0002120 325.9455  47.1980 11.99893147158856
GLOBALSTAR M061         
1 25964U 99062D   25082.23698507 -.00000056  00000+0  39451-3 0  9995
2 25964  51.9800  57.6990 0005966 161.4000 213.2369 11.76772293111357
